{
  "type": "FeatureCollection",
  "features": [
    {
      "type": "Feature",
      "properties": {
        "norad_id": 38474,
        "name": "IRIDIUM 33 DEB",
        "group": "iridium-33-debris",
        "lat": -37.68306596258727,
        "lon": -171.66697957978653,
        "alt_km": 748.5215739267987,
        "timestamp": "2025-12-23T05:02:12.415832+00:00",
        "meta_object_name": "IRIDIUM 33 DEB",
        "meta_object_id": "1997-051AAB",
        "meta_epoch": "2025-12-21T07:20:31.212384",
        "meta_mean_motion": 14.50718538,
        "meta_eccentricity": 0.00276153,
        "meta_inclination": 86.3426,
        "meta_ra_of_asc_node": 6.3307,
        "meta_arg_of_pericenter": 61.1056,
        "meta_mean_anomaly": 299.2914,
        "meta_ephemeris_type": 0,
        "meta_classification_type": "U",
        "meta_norad_cat_id": 38474,
        "meta_element_set_no": 999,
        "meta_rev_at_epoch": 65442,
        "meta_bstar": 0.00039085525,
        "meta_mean_motion_dot": 1.564e-05,
        "meta_mean_motion_ddot": 0,
        "tle_line1": "1 38474U 97051AAB 25355.30591681  .00001564  00000+0  39086-3 0  9995",
        "tle_line2": "2 38474  86.3426   6.3307 0027615  61.1056 299.2914 14.50718538654425"
      },
      "geometry": {
        "type": "Point",
        "coordinates": [
          -171.66697957978653,
          -37.68306596258727
        ]
      }
    },
    {
      "type": "Feature",
      "properties": {
        "norad_id": 39777,
        "name": "IRIDIUM 33 DEB",
        "group": "iridium-33-debris",
        "lat": 56.126169678159805,
        "lon": -16.075575590424002,
        "alt_km": 660.7699963957157,
        "timestamp": "2025-12-23T05:02:12.415843+00:00",
        "meta_object_name": "IRIDIUM 33 DEB",
        "meta_object_id": "1997-051AAJ",
        "meta_epoch": "2025-12-22T21:52:35.806656",
        "meta_mean_motion": 14.5664884,
        "meta_eccentricity": 0.00604873,
        "meta_inclination": 85.963,
        "meta_ra_of_asc_node": 170.108,
        "meta_arg_of_pericenter": 152.431,
        "meta_mean_anomaly": 208.0129,
        "meta_ephemeris_type": 0,
        "meta_classification_type": "U",
        "meta_norad_cat_id": 39777,
        "meta_element_set_no": 999,
        "meta_rev_at_epoch": 60333,
        "meta_bstar": 0.0029165707,
        "meta_mean_motion_dot": 0.00013373,
        "meta_mean_motion_ddot": 0,
        "tle_line1": "1 39777U 97051AAJ 25356.91152554  .00013373  00000+0  29166-2 0  9990",
        "tle_line2": "2 39777  85.9630 170.1080 0060487 152.4310 208.0129 14.56648840603337"
      },
      "geometry": {
        "type": "Point",
        "coordinates": [
          -16.075575590424002,
          56.126169678159805
        ]
      }
    },
    {
      "type": "Feature",
      "properties": {
        "norad_id": 39778,
        "name": "IRIDIUM 33 DEB",
        "group": "iridium-33-debris",
        "lat": -53.99928183840203,
        "lon": -136.3166603888876,
        "alt_km": 722.1378999699509,
        "timestamp": "2025-12-23T05:02:12.415853+00:00",
        "meta_object_name": "IRIDIUM 33 DEB",
        "meta_object_id": "1997-051AAK",
        "meta_epoch": "2025-12-21T20:35:18.523392",
        "meta_mean_motion": 14.54320185,
        "meta_eccentricity": 0.00069599,
        "meta_inclination": 86.3767,
        "meta_ra_of_asc_node": 39.2671,
        "meta_arg_of_pericenter": 13.6493,
        "meta_mean_anomaly": 346.4901,
        "meta_ephemeris_type": 0,
        "meta_classification_type": "U",
        "meta_norad_cat_id": 39778,
        "meta_element_set_no": 999,
        "meta_rev_at_epoch": 60825,
        "meta_bstar": 0.00075764417,
        "meta_mean_motion_dot": 3.235e-05,
        "meta_mean_motion_ddot": 0,
        "tle_line1": "1 39778U 97051AAK 25355.85785328  .00003235  00000+0  75764-3 0  9996",
        "tle_line2": "2 39778  86.3767  39.2671 0006959  13.6493 346.4901 14.54320185608257"
      },
      "geometry": {
        "type": "Point",
        "coordinates": [
          -136.3166603888876,
          -53.99928183840203
        ]
      }
    },
    {
      "type": "Feature",
      "properties": {
        "norad_id": 39781,
        "name": "IRIDIUM 33 DEB",
        "group": "iridium-33-debris",
        "lat": 13.924612807492169,
        "lon": 72.7627553102213,
        "alt_km": 786.5481392423326,
        "timestamp": "2025-12-23T05:02:12.415864+00:00",
        "meta_object_name": "IRIDIUM 33 DEB",
        "meta_object_id": "1997-051AAN",
        "meta_epoch": "2025-12-20T00:15:44.286336",
        "meta_mean_motion": 14.2080867,
        "meta_eccentricity": 0.01741047,
        "meta_inclination": 86.3716,
        "meta_ra_of_asc_node": 254.9822,
        "meta_arg_of_pericenter": 249.9468,
        "meta_mean_anomaly": 125.5554,
        "meta_ephemeris_type": 0,
        "meta_classification_type": "U",
        "meta_norad_cat_id": 39781,
        "meta_element_set_no": 999,
        "meta_rev_at_epoch": 8210,
        "meta_bstar": 0.0030068331,
        "meta_mean_motion_dot": 7.585e-05,
        "meta_mean_motion_ddot": 0,
        "tle_line1": "1 39781U 97051AAN 25354.01092924  .00007585  00000+0  30068-2 0  9999",
        "tle_line2": "2 39781  86.3716 254.9822 0174104 249.9468 125.5554 14.20808670 82106"
      },
      "geometry": {
        "type": "Point",
        "coordinates": [
          72.7627553102213,
          13.924612807492169
        ]
      }
    },
    {
      "type": "Feature",
      "properties": {
        "norad_id": 40996,
        "name": "IRIDIUM 33 DEB",
        "group": "iridium-33-debris",
        "lat": -50.30976461035291,
        "lon": -7.89535626557435,
        "alt_km": 582.703097068912,
        "timestamp": "2025-12-23T05:02:12.415879+00:00",
        "meta_object_name": "IRIDIUM 33 DEB",
        "meta_object_id": "1997-051ABJ",
        "meta_epoch": "2025-12-21T06:48:04.268736",
        "meta_mean_motion": 14.9672554,
        "meta_eccentricity": 0.001126,
        "meta_inclination": 86.3507,
        "meta_ra_of_asc_node": 357.4159,
        "meta_arg_of_pericenter": 39.2145,
        "meta_mean_anomaly": 336.8251,
        "meta_ephemeris_type": 0,
        "meta_classification_type": "U",
        "meta_norad_cat_id": 40996,
        "meta_element_set_no": 999,
        "meta_rev_at_epoch": 62616,
        "meta_bstar": 0.0023808,
        "meta_mean_motion_dot": 0.00027327,
        "meta_mean_motion_ddot": 0,
        "tle_line1": "1 40996U 97051ABJ 25355.28338274  .00027327  00000+0  23808-2 0  9990",
        "tle_line2": "2 40996  86.3507 357.4159 0011260  39.2145 336.8251 14.96725540626169"
      },
      "geometry": {
        "type": "Point",
        "coordinates": [
          -7.89535626557435,
          -50.30976461035291
        ]
      }
    },
    {
      "type": "Feature",
      "properties": {
        "norad_id": 40998,
        "name": "IRIDIUM 33 DEB",
        "group": "iridium-33-debris",
        "lat": -85.910381325786,
        "lon": -68.57978394507248,
        "alt_km": 754.5158262967861,
        "timestamp": "2025-12-23T05:02:12.415889+00:00",
        "meta_object_name": "IRIDIUM 33 DEB",
        "meta_object_id": "1997-051ABL",
        "meta_epoch": "2025-12-19T22:16:12.052992",
        "meta_mean_motion": 14.4511921,
        "meta_eccentricity": 0.000918,
        "meta_inclination": 86.3822,
        "meta_ra_of_asc_node": 50.5853,
        "meta_arg_of_pericenter": 65.4089,
        "meta_mean_anomaly": 59.4922,
        "meta_ephemeris_type": 0,
        "meta_classification_type": "U",
        "meta_norad_cat_id": 40998,
        "meta_element_set_no": 999,
        "meta_rev_at_epoch": 6785,
        "meta_bstar": 0.00031233,
        "meta_mean_motion_dot": 1.112e-05,
        "meta_mean_motion_ddot": 0,
        "tle_line1": "1 40998U 97051ABL 25353.92791728  .00001112  00000+0  31233-3 0  9994",
        "tle_line2": "2 40998  86.3822  50.5853 0009180  65.4089  59.4922 14.45119210 67852"
      },
      "geometry": {
        "type": "Point",
        "coordinates": [
          -68.57978394507248,
          -85.910381325786
        ]
      }
    },
    {
      "type": "Feature",
      "properties": {
        "norad_id": 46435,
        "name": "IRIDIUM 33 DEB",
        "group": "iridium-33-debris",
        "lat": 25.42601477639997,
        "lon": -168.7834381255026,
        "alt_km": 898.6441089896098,
        "timestamp": "2025-12-23T05:02:12.415899+00:00",
        "meta_object_name": "IRIDIUM 33 DEB",
        "meta_object_id": "1997-051ABN",
        "meta_epoch": "2025-12-22T18:56:02.562720",
        "meta_mean_motion": 14.32869382,
        "meta_eccentricity": 0.02062379,
        "meta_inclination": 86.2826,
        "meta_ra_of_asc_node": 189.6267,
        "meta_arg_of_pericenter": 243.6385,
        "meta_mean_anomaly": 130.4813,
        "meta_ephemeris_type": 0,
        "meta_classification_type": "U",
        "meta_norad_cat_id": 46435,
        "meta_element_set_no": 999,
        "meta_rev_at_epoch": 8060,
        "meta_bstar": 0.0097515557,
        "meta_mean_motion_dot": 0.00033858,
        "meta_mean_motion_ddot": 0,
        "tle_line1": "1 46435U 97051ABN 25356.78891855  .00033858  00000+0  97516-2 0  9992",
        "tle_line2": "2 46435  86.2826 189.6267 0206237 243.6385 130.4813 14.32869382 80606"
      },
      "geometry": {
        "type": "Point",
        "coordinates": [
          -168.7834381255026,
          25.42601477639997
        ]
      }
    }
  ]
}